STARLINK-5077           
1 55391U 23014A   23057.29431149  .00003463  00000+0  30541-4 0  9995
2 55391  69.9995  17.6926 0002373 288.8783  71.2156 15.69933832  4221
STARLINK-5085           
1 55392U 23014B   23057.16452862  .00040682  00000+0  33793-3 0  9992
2 55392  70.0026  18.0481 0003260 265.0410  95.0414 15.69962552  4201
STARLINK-4786           
1 55393U 23014C   23057.35823655  .00002790  00000+0  24959-4 0  9999
2 55393  69.9996  17.5141 0002918 260.0569 100.0297 15.69932529  4231
STARLINK-5230           
1 55394U 23014D   23057.35855388 -.00000401  00000+0 -15654-5 0  9990
2 55394  69.9993  17.5141 0002647 274.8290  85.2603 15.69927466  4231
STARLINK-5274           
1 55395U 23014E   23057.35844859  .00008330  00000+0  70942-4 0  9999
2 55395  69.9991  17.5125 0002570 279.3467  80.7438 15.69937379  4233
STARLINK-5283           
1 55396U 23014F   23057.35886450  .00016907  00000+0  14199-3 0  9993
2 55396  69.9981  17.5130 0003410 269.3134  90.7671 15.69942109  4230
STARLINK-5224           
1 55397U 23014G   23057.35833887 -.00002908  00000+0 -22421-4 0  9996
2 55397  69.9989  17.5128 0002837 268.9685  91.1186 15.69927121  4237
STARLINK-5275           
1 55398U 23014H   23057.35897118  .00001671  00000+0  15659-4 0  9993
2 55398  69.9994  17.5150 0002816 262.9780  97.1095 15.69929220  4233
STARLINK-5276           
1 55399U 23014J   23057.35865672  .00004700  00000+0  40821-4 0  9999
2 55399  69.9988  17.5138 0002796 272.5363  87.5512 15.69935354  4236
STARLINK-5632           
1 55400U 23014K   23057.35918271  .00007254  00000+0  61998-4 0  9991
2 55400  69.9977  17.5145 0003377 265.0507  95.0303 15.69942606  4238
STARLINK-5076           
1 55401U 23014L   23057.35876232 -.00001850  00000+0 -13621-4 0  9990
2 55401  69.9993  17.5158 0002757 278.1916  81.8967 15.69926561  4232
STARLINK-5071           
1 55402U 23014M   23057.16824487  .00007794  00000+0  66492-4 0  9990
2 55402  69.9995  18.0548 0002979 261.4277  98.6581 15.69938599  4204
STARLINK-5597           
1 55403U 23014N   23057.35907652  .00013413  00000+0  11303-3 0  9993
2 55403  69.9984  17.5139 0003184 269.3018  90.7813 15.69949145  4235
STARLINK-5607           
1 55404U 23014P   23057.35960508  .00010216  00000+0  86561-4 0  9990
2 55404  69.9988  17.5184 0003347 265.1501  94.9312 15.69941476  4231
STARLINK-5623           
1 55405U 23014Q   23057.35928731  .00009002  00000+0  76501-4 0  9997
2 55405  69.9987  17.5159 0003590 268.3052  91.7732 15.69940994  4234
STARLINK-5630           
1 55406U 23014R   23057.04123394  .00007766  00000+0  66273-4 0  9996
2 55406  70.0007  18.4159 0002776 240.7174 119.3744 15.69934734  4184
STARLINK-5019           
1 55407U 23014S   23057.16834903  .00011862  00000+0  10019-3 0  9993
2 55407  69.9997  18.0551 0003651 261.4662  98.6120 15.69944584  4201
STARLINK-5092           
1 55408U 23014T   23057.35992277 -.00001679  00000+0 -12200-4 0  9996
2 55408  70.0000  17.5177 0002651 268.0427  92.0465 15.69926131  4230
STARLINK-5047           
1 55409U 23014U   23057.35971271 -.00003816  00000+0 -29999-4 0  9996
2 55409  70.0005  17.5204 0002439 281.3139  78.7782 15.69919508  4232
STARLINK-5633           
1 55410U 23014V   23057.36034263  .00013448  00000+0  11333-3 0  9992
2 55410  69.9987  17.5185 0003106 272.9979  87.0861 15.69946444  5172
STARLINK-5605           
1 55411U 23014W   23057.42373989  .00024575  00000+0  20531-3 0  9994
2 55411  69.9991  17.3399 0003373 269.5834  90.4975 15.69952521  4245
STARLINK-5033           
1 55412U 23014X   23057.36045073  .00006657  00000+0  57073-4 0  9991
2 55412  69.9984  17.5193 0002737 277.8337  82.2548 15.69932424  4239
STARLINK-5060           
1 55413U 23014Y   23057.36013109 -.00001785  00000+0 -13084-4 0  9990
2 55413  69.9994  17.5183 0002854 270.6175  89.4694 15.69928250  4234
STARLINK-5620           
1 55414U 23014Z   23057.36065963  .00000169  00000+0  31720-5 0  9997
2 55414  69.9987  17.5198 0002734 269.9976  90.0907 15.69928985  5174
STARLINK-5618           
1 55415U 23014AA  23057.36021665  .00029440  00000+0  24487-3 0  9992
2 55415  69.9985  17.5189 0003114 264.1572  95.9269 15.70011581  4233
STARLINK-5624           
1 55416U 23014AB  23057.29715853  .00001155  00000+0  11372-4 0  9997
2 55416  70.0013  17.7016 0002447 249.8344 110.2589 15.69924249  4222
STARLINK-5616           
1 55417U 23014AC  23057.16940258  .00014064  00000+0  11843-3 0  9998
2 55417  69.9987  18.0578 0003220 258.6319 101.4515 15.69946826  5145
STARLINK-5030           
1 55418U 23014AD  23057.36107954  .00006920  00000+0  59253-4 0  9999
2 55418  69.9994  17.5215 0002733 264.8776  95.2108 15.69933679  4239
STARLINK-5629           
1 55419U 23014AE  23057.36076560  .00004775  00000+0  41439-4 0  9991
2 55419  69.9989  17.5213 0002838 272.7142  87.3729 15.69934377  4230
STARLINK-5604           
1 55420U 23014AF  23057.03912754  .00014602  00000+0  12296-3 0  9999
2 55420  70.0038  18.4186 0002913 251.7622 108.3257 15.69932545  4182
STARLINK-5598           
1 55421U 23014AG  23057.16982414  .00022638  00000+0  18931-3 0  9994
2 55421  69.9988  18.0589 0003151 266.4064  93.6772 15.69953088  5145
STARLINK-5006           
1 55422U 23014AH  23057.36160609  .00006969  00000+0  59646-4 0  9999
2 55422  69.9994  17.5231 0003110 261.3945  98.6898 15.69939087  4234
STARLINK-5068           
1 55423U 23014AJ  23056.91517178  .00010384  00000+0  87988-4 0  9993
2 55423  69.9996  18.7772 0003167 271.1534  88.9299 15.69933717  5103
STARLINK-5615           
1 55425U 23014AL  23057.36139971  .00003434  00000+0  30319-4 0  9990
2 55425  70.0003  17.5239 0002455 260.4003  99.6916 15.69924256  4239
STARLINK-5638           
1 55426U 23014AM  23057.36192421  .00007177  00000+0  61375-4 0  9994
2 55426  69.9995  17.5235 0003103 269.9893  90.0947 15.69938153  4235
STARLINK-5073           
1 55427U 23014AN  23057.36150228  .00002540  00000+0  22873-4 0  9993
2 55427  70.0000  17.5239 0002849 255.7812 104.3067 15.69933831  4230
STARLINK-5064           
1 55428U 23014AP  23057.36213504  .00010563  00000+0  89451-4 0  9990
2 55428  69.9987  17.5245 0002965 273.1650  86.9206 15.69940967  4230
STARLINK-5645           
1 55429U 23014AQ  23057.36181910  .00010638  00000+0  90083-4 0  9992
2 55429  70.0008  17.5250 0003053 272.2597  87.8249 15.69937320  4239
STARLINK-5642           
1 55430U 23014AR  23056.91667824 -.01232083  00000+0 -26279-1 0  9993
2 55430  70.0000  19.3724 0003411 264.8968 303.5329 15.47522413  1307
STARLINK-5643           
1 55431U 23014AS  23057.36202979  .00011956  00000+0  10099-3 0  9996
2 55431  69.9994  17.5253 0002780 263.5077  96.5802 15.69942480  4233
STARLINK-5637           
1 55432U 23014AT  23056.91667824 -.01233894  00000+0 -27196-1 0  9995
2 55432  70.0003  19.3776 0003338 268.5253 295.2164 15.46583110  1309
STARLINK-5570           
1 55433U 23014AU  23056.91667824 -.01236767  00000+0 -26163-1 0  9991
2 55433  70.0005  19.3713 0003325 268.3064 302.0810 15.47769293  1301
STARLINK-5621           
1 55434U 23014AV  23056.91667824 -.01232772  00000+0 -27528-1 0  9990
2 55434  70.0005  19.3842 0003376 264.9170 293.2709 15.46203257  1301
STARLINK-5626           
1 55435U 23014AW  23056.91667824 -.01232294  00000+0 -27322-1 0  9992
2 55435  70.0005  19.3812 0003336 265.7626 295.9388 15.46408506  1306
STARLINK-5640           
1 55436U 23014AX  23057.58334491 -.01192217  00000+0 -28344-1 0  9993
2 55436  70.0001  17.5808 0003495 268.4876  34.8957 15.44282209  4258
STARLINK-5080           
1 55437U 23014AY  23056.91667824 -.01232720  00000+0 -27493-1 0  9997
2 55437  70.0005  19.3835 0003320 265.4159 294.2193 15.46239287  1308
STARLINK-5074           
1 55438U 23014AZ  23057.16676013  .00011855  00000+0  10012-3 0  9998
2 55438  70.0031  18.0542 0003316 260.2417  99.8404 15.69947745  4200
STARLINK-5634           
1 55439U 23014BA  23057.25001157 -.01149911  00000+0 -27231-1 0  9997
2 55439  70.0004  18.4912 0003337 272.8349 330.5337 15.44300028  4202
FALCON 9 DEB            
1 55440U 23014BB  23057.30128238  .00297135  35945-4  10189-2 0  9990
2 55440  70.0042  16.4605 0005842 198.7621 161.3370 15.89480622  4378
ION SCV-009             
1 55441U 23014BC  23057.33065694  .00076474  00000+0  58909-3 0  9993
2 55441  70.0095  17.4263 0053049 311.1528  48.5096 15.69676100  4352
FALCON 9 DEB            
1 55442U 23014BD  23057.15458733  .00343805  48162-4  10690-2 0  9999
2 55442  70.0066  16.7406 0009657 186.6014 173.5067 15.91347581  4353
FALCON 9 DEB            
1 55443U 23014BE  23057.26313348  .00436710  78978-4  11899-2 0  9992
2 55443  70.0017  16.3022 0010414 198.1984 161.8853 15.93861449  4378
FALCON 9 DEB            
1 55444U 23014BF  23057.30562459  .00279869  32090-4  98230-3 0  9997
2 55444  70.0056  16.4793 0005348 182.5241 177.5938 15.89024745  4374
FALCON 9 DEB            
1 55445U 23014BG  23057.27450674  .00442117  80070-4  12617-2 0  9992
2 55445  70.0067  16.3691 0008803 190.0303 170.0730 15.93010017  4375
EBAD TEST MASS          
1 55446U 23014BH  23057.14746458  .00084344  00000+0  38391-3 0  9999
2 55446  70.0105  17.1582 0006496 209.6817 150.4018 15.83425552  4341
APSTAR 6E SPS           
1 55447U 23005C   23057.09616361 -.00000065  00000+0 -15187-1 0  9999
2 55447  28.6696 292.5868 2304006 214.1411 128.7076  7.60507050  1982
STARLINK-5699           
1 55449U 23015A   23056.87453513  .00085432  00000+0  64773-3 0  9991
2 55449  43.0007 246.7918 0002217 274.3150  85.7465 15.71373902  4809
STARLINK-5686           
1 55450U 23015B   23057.51024731  .00040808  00000+0  31237-3 0  9998
2 55450  43.0007 242.9588 0001687 276.3511  83.7165 15.71411851  3771
STARLINK-5656           
1 55451U 23015C   23057.00155087  .00033675  00000+0  25885-3 0  9998
2 55451  43.0006 246.0244 0002042 251.2541 108.8106 15.71386873  3887
